[{"OBJECT_NAME":"STARLINK-3987","OBJECT_ID":"2022-053AV","EPOCH":"2026-03-09T12:09:45.697824","MEAN_MOTION":15.08809649,"ECCENTRICITY":0.00015324,"INCLINATION":53.2184,"RA_OF_ASC_NODE":139.9745,"ARG_OF_PERICENTER":88.0087,"MEAN_ANOMALY":272.1081,"EPHEMERIS_TYPE":0,"CLASSIFICATION_TYPE":"U","NORAD_CAT_ID":52699,"ELEMENT_SET_NO":999,"REV_AT_EPOCH":21121,"BSTAR":0.00037990234,"MEAN_MOTION_DOT":5.758e-5,"MEAN_MOTION_DDOT":0},{"OBJECT_NAME":"CZ-6A DEB","OBJECT_ID":"2022-151TF","EPOCH":"2026-03-09T20:10:56.828064","MEAN_MOTION":14.824189,"ECCENTRICITY":0.01303169,"INCLINATION":98.7184,"RA_OF_ASC_NODE":180.8188,"ARG_OF_PERICENTER":97.1353,"MEAN_ANOMALY":264.4696,"EPHEMERIS_TYPE":0,"CLASSIFICATION_TYPE":"U","NORAD_CAT_ID":54966,"ELEMENT_SET_NO":999,"REV_AT_EPOCH":17789,"BSTAR":0.0010552869,"MEAN_MOTION_DOT":9.753e-5,"MEAN_MOTION_DDOT":0}]
